COSMOS 2251 DEB         
1 33920U 93036DZ  26199.11733628  .00002128  00000+0  43376-3 0  9994
2 33920  74.0576 244.2092 0032372 204.3188 155.6453 14.61317758912873
COSMOS 2251 DEB         
1 33922U 93036EB  26199.19073696  .00000512  00000+0  13849-3 0  9993
2 33922  74.0469  99.7924 0022478 157.6977 355.7321 14.50145171917299
COSMOS 2251 DEB         
1 33924U 93036ED  26199.18478080  .00000248  00000+0  25674-3 0  9995
2 33924  73.9135 280.6097 0402788 276.5479  78.9934 13.50491872856742
COSMOS 2251 DEB         
1 33928U 93036EH  26198.90347847  .00000313  00000+0  90694-4 0  9992
2 33928  73.9254   3.5322 0060952 251.6127 107.8397 14.47835950917871
COSMOS 2251 DEB         
1 33932U 93036EM  26199.19851499  .00000401  00000+0  13663-3 0  9990
2 33932  74.0333 274.6468 0037609 300.7320  59.0132 14.39305631911263
COSMOS 2251 DEB         
1 33933U 93036EN  26199.20027055  .00000257  00000+0  98842-4 0  9998
2 33933  74.0883  23.6327 0071730 337.0515  22.7436 14.33908367909015
COSMOS 2251 DEB         
1 33934U 93036EP  26199.24557526  .00001301  00000+0  27304-3 0  9999
2 33934  74.0355  45.5733 0015998 110.5283 249.7602 14.60616147919136
COSMOS 2251 DEB         
1 33936U 93036ER  26199.10587693  .00001224  00000+0  25131-3 0  9994
2 33936  74.0172 341.5563 0027580  77.6806 282.7445 14.61564755920647
COSMOS 2251 DEB         
1 33938U 93036ET  26199.00688726  .00000628  00000+0  17804-3 0  9999
2 33938  74.0445 161.2574 0016617 197.3585 229.2357 14.47494372915434
COSMOS 2251 DEB         
1 33939U 93036EU  26198.84533411  .00060745  00000+0  20014-2 0  9993
2 33939  73.9967 348.7488 0007933  99.5819 260.6280 15.31148520920381
COSMOS 2251 DEB         
1 33940U 93036EV  26199.15653117  .00001480  00000+0  31017-3 0  9993
2 33940  74.0383  88.8241 0011079 116.7683  35.9384 14.60595390917660
COSMOS 2251 DEB         
1 33942U 93036EX  26199.18042174  .00000177  00000+0  66889-4 0  9991
2 33942  74.0344 234.2736 0021865 269.4577 156.1093 14.38250654912605
COSMOS 2251 DEB         
1 33944U 93036EZ  26198.44657529  .00000257  00000+0  88207-4 0  9994
2 33944  74.0397 270.0861 0114201 316.7903  58.3447 14.37718657911424
COSMOS 2251 DEB         
1 33945U 93036FA  26199.19734423  .00000109  00000+0  47664-4 0  9995
2 33945  74.0292 267.7570 0023830 303.5445  56.3431 14.34750587911348
COSMOS 2251 DEB         
1 33948U 93036FD  26199.20482071  .00000151  00000+0  60922-4 0  9998
2 33948  74.0350 266.0627 0024546 292.1022  67.7525 14.35840570911444
COSMOS 2251 DEB         
1 33971U 93036FE  26199.13066921  .00000255  00000+0  89106-4 0  9998
2 33971  74.0227 211.8294 0020238 265.1206 161.8733 14.40067421912685
COSMOS 2251 DEB         
1 33972U 93036FF  26199.32133319  .00001701  00000+0  52015-3 0  9991
2 33972  73.9944 149.1299 0123449 266.3679 248.1792 14.38340881902003
COSMOS 2251 DEB         
1 33973U 93036FG  26199.06209193  .00000144  00000+0  48105-4 0  9993
2 33973  74.0076  57.0531 0046174 184.5848 336.3329 14.45580937917408
COSMOS 2251 DEB         
1 33975U 93036FJ  26199.06152501  .00000388  00000+0  23616-3 0  9994
2 33975  73.8001  62.3279 0190502 157.6176 203.3413 14.00813660888725
COSMOS 2251 DEB         
1 33980U 93036FP  26199.24133000  .00001192  00000+0  25392-3 0  9990
2 33980  74.0193   4.3839 0028584  91.2100  85.5244 14.59871853919677
COSMOS 2251 DEB         
1 33982U 93036FR  26199.29929168  .00000658  00000+0  13476-3 0  9991
2 33982  74.0703 305.0794 0075580 293.6611  96.8087 14.61183520923361
COSMOS 2251 DEB         
1 33983U 93036FS  26199.19497984  .00000638  00000+0  16653-3 0  9995
2 33983  74.0495  98.3285 0020439 147.6367 333.2802 14.51420199917839
COSMOS 2251 DEB         
1 33984U 93036FT  26199.19505302  .00001404  00000+0  24834-3 0  9992
2 33984  74.0074 286.4986 0022767  60.6084 322.6306 14.68235294922562
COSMOS 2251 DEB         
1 33986U 93036FV  26199.15699853  .00000653  00000+0  19657-3 0  9997
2 33986  74.0343 258.4851 0042891 282.0581 107.8291 14.44106629911663
COSMOS 2251 DEB         
1 33990U 93036FZ  26199.23853154  .00000300  00000+0  30493-3 0  9997
2 33990  73.9289 296.7491 0405436 276.8243 104.9936 13.50260891856653
COSMOS 2251 DEB         
1 33992U 93036GB  26199.18840196  .00001144  00000+0  20155-3 0  9996
2 33992  74.0221 277.6695 0054019 340.1730  46.6729 14.67895055923146
COSMOS 2251 DEB         
1 33994U 93036GD  26199.31639177  .00000098  00000+0  38517-4 0  9997
2 33994  74.0431 147.7252 0024066 232.1117 280.4884 14.41346077915547
COSMOS 2251 DEB         
1 33995U 93036GE  26199.06208206  .00000835  00000+0  29172-3 0  9990
2 33995  74.0598  81.4132 0059731  42.0570 318.5145 14.35739002906372
COSMOS 2251 DEB         
1 33999U 93036GJ  26199.29082819  .00006384  00000+0  68227-3 0  9998
2 33999  73.9156 155.0095 0040590 353.0607   7.0005 14.88370654924826
COSMOS 2251 DEB         
1 34001U 93036GL  26199.17540793  .00000104  00000+0  43750-4 0  9999
2 34001  74.0369 241.6917 0021551 274.1216 156.1193 14.37311527912705
COSMOS 2251 DEB         
1 34003U 93036GN  26199.19650439  .00000409  00000+0  28370-3 0  9990
2 34003  74.0761 278.7883 0277886 340.4806  18.5839 13.85007303874354
COSMOS 2251 DEB         
1 34004U 93036GP  26199.12915155  .00001322  00000+0  34113-3 0  9990
2 34004  74.0328 264.8297 0030757 232.7511 127.0844 14.50750874911815
COSMOS 2251 DEB         
1 34005U 93036GQ  26198.93651454  .00000106  00000+0  41545-4 0  9995
2 34005  74.0442 172.2984 0021565 241.2251 149.7919 14.40457157915063
COSMOS 2251 DEB         
1 34006U 93036GR  26199.03121437  .00034725  00000+0  17816-2 0  9997
2 34006  74.0569  58.3077 0006685 177.6481 338.6614 15.16359799919381
COSMOS 2251 DEB         
1 34007U 93036GS  26199.24452251  .00001107  00000+0  20329-3 0  9994
2 34007  74.0177 287.6183 0046512   5.7964 354.3733 14.66326834922662
COSMOS 2251 DEB         
1 34008U 93036GT  26199.27084698  .00000100  00000+0  45773-4 0  9997
2 34008  74.0350 292.9308 0024239 240.0818 139.8304 14.33276234910814
COSMOS 2251 DEB         
1 34009U 93036GU  26199.25028523  .00000117  00000+0  51819-4 0  9997
2 34009  74.0381 299.3952 0028395 317.3147  63.5356 14.33377779910620
COSMOS 2251 DEB         
1 34011U 93036GW  26198.64169387  .00000649  00000+0  20074-3 0  9994
2 34011  74.0136 287.2653 0039408 322.0576  37.7804 14.42816419910430
COSMOS 2251 DEB         
1 34014U 93036GZ  26199.09989509  .00001888  00000+0  27898-3 0  9990
2 34014  74.0138 215.7754 0040248 300.6791 115.3955 14.75489007925079
COSMOS 2251 DEB         
1 34015U 93036HA  26199.17708919  .00001601  00000+0  32662-3 0  9992
2 34015  74.0238 103.5158 0020737 148.7857   2.0311 14.61693633917063
COSMOS 2251 DEB         
1 34018U 93036HD  26199.08930712  .00000279  00000+0  21689-3 0  9990
2 34018  73.8766  83.6587 0264649  79.4799 351.6378 13.81329908876589
COSMOS 2251 DEB         
1 34019U 93036HE  26198.90460453  .00000956  00000+0  33957-3 0  9994
2 34019  73.9529  11.0690 0060993 141.3286 342.1551 14.34711628906343
COSMOS 2251 DEB         
1 34021U 93036HG  26199.12829941  .00000503  00000+0  13505-3 0  9998
2 34021  74.0353  81.4101 0020207 172.6753 339.0836 14.50577610917815
COSMOS 2251 DEB         
1 34022U 93036HH  26199.09277946  .00000183  00000+0  67243-4 0  9990
2 34022  74.0519 230.1964 0023482 246.7209 144.1508 14.39236335913222
COSMOS 2251 DEB         
1 34023U 93036HJ  26199.26936574  .00000311  00000+0  10507-3 0  9992
2 34023  74.0227 209.0138 0020086 258.2226 117.7861 14.40966937913476
COSMOS 2251 DEB         
1 34024U 93036HK  26199.23358175  .00000157  00000+0  63468-4 0  9998
2 34024  74.0463 277.2850 0022385 279.1884 111.3364 14.35607071911452
COSMOS 2251 DEB         
1 34026U 93036HM  26199.14575808  .00000732  00000+0  61059-3 0  9996
2 34026  73.7685 335.6621 0346513 171.6077   1.7762 13.65711288864991
COSMOS 2251 DEB         
1 34028U 93036HP  26198.92622457  .00000082  00000+0  11033-3 0  9991
2 34028  73.8822  14.1720 0545576 115.4723   3.2122 13.20811321838752
COSMOS 2251 DEB         
1 34031U 93036HS  26199.07488676  .00001737  00000+0  35339-3 0  9998
2 34031  74.0113  79.8306 0022898 146.9982 339.4338 14.61701777917393
COSMOS 2251 DEB         
1 34035U 93036HW  26199.25553190  .00001907  00000+0  45110-3 0  9993
2 34035  74.0647 299.1792 0040619 252.2528 135.9771 14.54334348911261
COSMOS 2251 DEB         
1 34036U 93036HX  26199.06540457  .00033104  00000+0  16228-2 0  9996
2 34036  74.0034  62.6410 0011347 109.5902 250.6520 15.17930801918426
COSMOS 2251 DEB         
1 34037U 93036HY  26199.17512137  .00000466  00000+0  16912-3 0  9999
2 34037  74.0506  12.2550 0053805   9.1952 351.0172 14.35270980908367
COSMOS 2251 DEB         
1 34040U 93036JB  26199.03552829  .00000089  00000+0  87594-4 0  9996
2 34040  73.9563  66.5745 0336368 337.6263  21.0463 13.69117279865739
COSMOS 2251 DEB         
1 34045U 93036JG  26199.16420065  .00000069  00000+0  33965-4 0  9992
2 34045  74.0388 272.9669 0027479 304.7841  74.9657 14.34172005911506
COSMOS 2251 DEB         
1 34046U 93036JH  26198.61175184  .00001408  00000+0  37066-3 0  9994
2 34046  74.0381 324.8691 0076935 355.9581  18.5255 14.48278313909646
COSMOS 2251 DEB         
1 34050U 93036JM  26199.20605300  .00000080  00000+0  60894-4 0  9994
2 34050  74.0876 356.8058 0218127   9.3720 171.7591 13.96700988884678
COSMOS 2251 DEB         
1 34053U 93036JQ  26199.14009542  .00000098  00000+0  10955-3 0  9997
2 34053  73.8425 251.7278 0423684   3.9904 356.4403 13.49378685856165
COSMOS 2251 DEB         
1 34056U 93036JT  26199.03682163  .00000562  00000+0  24579-3 0  9997
2 34056  74.0561  47.3227 0125802  43.7973 107.1164 14.21859297894985
COSMOS 2251 DEB         
1 34058U 93036JV  26199.16403208  .00000176  00000+0  17621-3 0  9995
2 34058  73.9313 185.6021 0376591 139.7785 310.5839 13.56314100860908
COSMOS 2251 DEB         
1 34059U 93036JW  26199.21293207  .00000961  00000+0  23379-3 0  9997
2 34059  74.0375 135.5646 0017694 163.7828 265.5566 14.54096276916196
